start=new Date('2023-06-09T00:00:00.000Z').valueOf();
sats=[{"DECAY_DATE":null,"ECCENTRICITY":"0.00034730","OBJECT_TYPE":"PAYLOAD","INCLINATION":"69.9991","OBJECT_NAME":"STARLINK-5062","MEAN_MOTION_DOT":"-0.00843071","LAUNCH_DATE":"2023-02-17","TLE_LINE1":"1 55637U 23021K   23159.91667824 -.00843071  00000-0 -30045-1 0  9995","RA_OF_ASC_NODE":"199.1053","NORAD_CAT_ID":"55637","MEAN_ELEMENT_THEORY":"SGP4","ARG_OF_PERICENTER":"268.0222","PERIOD":"94.033","TLE_LINE2":"2 55637  69.9991 199.1053 0003473 268.0222 119.9785 15.31383580  1309","REV_AT_EPOCH":"130","TIME_SYSTEM":"UTC","CLASSIFICATION_TYPE":"U","PERIAPSIS":"469.306","APOAPSIS":"474.064","COUNTRY_CODE":"US","OBJECT_ID":"2023-021K","ELEMENT_SET_NO":"999","FILE":"3928201","MEAN_MOTION_DDOT":"0.0000000000000","REF_FRAME":"TEME","RCS_SIZE":"LARGE","MEAN_ANOMALY":"119.9785","MEAN_MOTION":"15.31383580","GP_ID":"233505644","BSTAR":"-0.03004500000000","SITE":"AFWTR","EPOCH":"2023-06-08T22:00:00.999936","EPHEMERIS_TYPE":"0","CENTER_NAME":"EARTH","SEMIMAJOR_AXIS":"6849.820"},{"EPHEMERIS_TYPE":"0","CENTER_NAME":"EARTH","SEMIMAJOR_AXIS":"6950.186","GP_ID":"233505894","BSTAR":"0.00002404100000","SITE":"AFWTR","EPOCH":"2023-06-08T13:56:43.388736","MEAN_MOTION_DDOT":"0.0000000000000","FILE":"3928201","REF_FRAME":"TEME","RCS_SIZE":"LARGE","MEAN_ANOMALY":"90.4350","MEAN_MOTION":"14.98332099","REV_AT_EPOCH":"1774","TLE_LINE2":"2 55638  69.9989 218.6493 0003792 269.6374  90.4350 14.98332099 17748","PERIOD":"96.107","TIME_SYSTEM":"UTC","CLASSIFICATION_TYPE":"U","APOAPSIS":"574.687","PERIAPSIS":"569.416","COUNTRY_CODE":"US","OBJECT_ID":"2023-021L","ELEMENT_SET_NO":"999","ARG_OF_PERICENTER":"269.6374","RA_OF_ASC_NODE":"218.6493","NORAD_CAT_ID":"55638","MEAN_ELEMENT_THEORY":"SGP4","INCLINATION":"69.9989","OBJECT_NAME":"STARLINK-5507","MEAN_MOTION_DOT":"0.00000194","LAUNCH_DATE":"2023-02-17","TLE_LINE1":"1 55638U 23021L   23159.58105774  .00000194  00000-0  24041-4 0  9991","DECAY_DATE":null,"ECCENTRICITY":"0.00037920","OBJECT_TYPE":"PAYLOAD"},{"TLE_LINE1":"1 55639U 23021M   23159.91667824 -.00847673  00000-0 -29221-1 0  9993","LAUNCH_DATE":"2023-02-17","MEAN_MOTION_DOT":"-0.00847673","OBJECT_NAME":"STARLINK-5508","INCLINATION":"69.9990","OBJECT_TYPE":"PAYLOAD","ECCENTRICITY":"0.00035160","DECAY_DATE":null,"ARG_OF_PERICENTER":"271.5761","MEAN_ELEMENT_THEORY":"SGP4","NORAD_CAT_ID":"55639","RA_OF_ASC_NODE":"199.0572","MEAN_ANOMALY":"158.6200","MEAN_MOTION":"15.32457017","RCS_SIZE":"LARGE","FILE":"3928201","MEAN_MOTION_DDOT":"0.0000000000000","REF_FRAME":"TEME","COUNTRY_CODE":"US","OBJECT_ID":"2023-021M","ELEMENT_SET_NO":"999","CLASSIFICATION_TYPE":"U","PERIAPSIS":"466.079","APOAPSIS":"470.894","TIME_SYSTEM":"UTC","PERIOD":"93.967","TLE_LINE2":"2 55639  69.9990 199.0572 0003516 271.5761 158.6200 15.32457017  1300","REV_AT_EPOCH":"130","SEMIMAJOR_AXIS":"6846.621","CENTER_NAME":"EARTH","EPHEMERIS_TYPE":"0","SITE":"AFWTR","EPOCH":"2023-06-08T22:00:00.999936","BSTAR":"-0.02922100000000","GP_ID":"233507146"},{"ARG_OF_PERICENTER":"268.1587","MEAN_ELEMENT_THEORY":"SGP4","RA_OF_ASC_NODE":"199.0204","NORAD_CAT_ID":"55640","MEAN_MOTION_DOT":"-0.00849189","LAUNCH_DATE":"2023-02-17","TLE_LINE1":"1 55640U 23021N   23159.91667824 -.00849189  00000-0 -28501-1 0  9999","INCLINATION":"69.9988","OBJECT_NAME":"STARLINK-5069","OBJECT_TYPE":"PAYLOAD","DECAY_DATE":null,"ECCENTRICITY":"0.00032150","SEMIMAJOR_AXIS":"6844.079","EPHEMERIS_TYPE":"0","CENTER_NAME":"EARTH","BSTAR":"-0.02850100000000","SITE":"AFWTR","EPOCH":"2023-06-08T22:00:00.999936","GP_ID":"233480702","RCS_SIZE":"LARGE","MEAN_ANOMALY":"194.0734","MEAN_MOTION":"15.33311027","FILE":"3928161","MEAN_MOTION_DDOT":"0.0000000000000","REF_FRAME":"TEME","CLASSIFICATION_TYPE":"U","APOAPSIS":"468.144","PERIAPSIS":"463.743","COUNTRY_CODE":"US","ELEMENT_SET_NO":"999","OBJECT_ID":"2023-021N","TLE_LINE2":"2 55640  69.9988 199.0204 0003215 268.1587 194.0734 15.33311027 17950","PERIOD":"93.914","REV_AT_EPOCH":"1795","TIME_SYSTEM":"UTC"},{"MEAN_MOTION_DOT":"-0.00846960","TLE_LINE1":"1 55641U 23021P   23159.91667824 -.00846960  00000-0 -29388-1 0  9998","LAUNCH_DATE":"2023-02-17","INCLINATION":"69.9988","OBJECT_NAME":"STARLINK-5065","OBJECT_TYPE":"PAYLOAD","DECAY_DATE":null,"ECCENTRICITY":"0.00035070","ARG_OF_PERICENTER":"270.1811","MEAN_ELEMENT_THEORY":"SGP4","RA_OF_ASC_NODE":"199.0665","NORAD_CAT_ID":"55641","RCS_SIZE":"LARGE","MEAN_ANOMALY":"151.9157","MEAN_MOTION":"15.32247048","MEAN_MOTION_DDOT":"0.0000000000000","FILE":"3928201","REF_FRAME":"TEME","CLASSIFICATION_TYPE":"U","PERIAPSIS":"466.710","APOAPSIS":"471.513","COUNTRY_CODE":"US","ELEMENT_SET_NO":"999","OBJECT_ID":"2023-021P","REV_AT_EPOCH":"130","TLE_LINE2":"2 55641  69.9988 199.0665 0003507 270.1811 151.9157 15.32247048  1302","PERIOD":"93.980","TIME_SYSTEM":"UTC","SEMIMAJOR_AXIS":"6847.247","EPHEMERIS_TYPE":"0","CENTER_NAME":"EARTH","BSTAR":"-0.02938800000000","SITE":"AFWTR","EPOCH":"2023-06-08T22:00:00.999936","GP_ID":"233506145"},{"ARG_OF_PERICENTER":"267.1912","MEAN_ELEMENT_THEORY":"SGP4","NORAD_CAT_ID":"55642","RA_OF_ASC_NODE":"199.1463","TLE_LINE1":"1 55642U 23021Q   23159.91667824 -.00841991  00000-0 -30831-1 0  9993","LAUNCH_DATE":"2023-02-17","MEAN_MOTION_DOT":"-0.00841991","OBJECT_NAME":"STARLINK-5478","INCLINATION":"69.9992","OBJECT_TYPE":"PAYLOAD","ECCENTRICITY":"0.00034710","DECAY_DATE":null,"SEMIMAJOR_AXIS":"6852.423","CENTER_NAME":"EARTH","EPHEMERIS_TYPE":"0","EPOCH":"2023-06-08T22:00:00.999936","SITE":"AFWTR","BSTAR":"-0.03083100000000","GP_ID":"233480107","MEAN_MOTION":"15.30511104","MEAN_ANOMALY":"85.0069","RCS_SIZE":"LARGE","REF_FRAME":"TEME","MEAN_MOTION_DDOT":"0.0000000000000","FILE":"3928151","ELEMENT_SET_NO":"999","OBJECT_ID":"2023-021Q","COUNTRY_CODE":"US","PERIAPSIS":"471.910","APOAPSIS":"476.667","CLASSIFICATION_TYPE":"U","TIME_SYSTEM":"UTC","PERIOD":"94.086","TLE_LINE2":"2 55642  69.9992 199.1463 0003471 267.1912  85.0069 15.30511104 17955","REV_AT_EPOCH":"1795"},{"SITE":"AFWTR","EPOCH":"2023-06-08T22:00:00.999936","BSTAR":"-0.02885600000000","GP_ID":"233480111","SEMIMAJOR_AXIS":"6845.347","CENTER_NAME":"EARTH","EPHEMERIS_TYPE":"0","COUNTRY_CODE":"US","ELEMENT_SET_NO":"999","OBJECT_ID":"2023-021R","CLASSIFICATION_TYPE":"U","APOAPSIS":"469.431","PERIAPSIS":"464.994","TIME_SYSTEM":"UTC","PERIOD":"93.941","TLE_LINE2":"2 55643  69.9990 199.0387 0003241 271.3882 174.9918 15.32884875 17957","REV_AT_EPOCH":"1795","MEAN_ANOMALY":"174.9918","MEAN_MOTION":"15.32884875","RCS_SIZE":"LARGE","FILE":"3928151","MEAN_MOTION_DDOT":"0.0000000000000","REF_FRAME":"TEME","MEAN_ELEMENT_THEORY":"SGP4","NORAD_CAT_ID":"55643","RA_OF_ASC_NODE":"199.0387","ARG_OF_PERICENTER":"271.3882","OBJECT_TYPE":"PAYLOAD","DECAY_DATE":null,"ECCENTRICITY":"0.00032410","TLE_LINE1":"1 55643U 23021R   23159.91667824 -.00848337  00000-0 -28856-1 0  9999","LAUNCH_DATE":"2023-02-17","MEAN_MOTION_DOT":"-0.00848337","OBJECT_NAME":"STARLINK-5483","INCLINATION":"69.9990"},{"TLE_LINE1":"1 55644U 23021S   23159.91667824 -.00845237  00000-0 -29717-1 0  9993","LAUNCH_DATE":"2023-02-17","MEAN_MOTION_DOT":"-0.00845237","OBJECT_NAME":"STARLINK-5502","INCLINATION":"69.9990","OBJECT_TYPE":"PAYLOAD","DECAY_DATE":null,"ECCENTRICITY":"0.00034800","ARG_OF_PERICENTER":"268.6171","MEAN_ELEMENT_THEORY":"SGP4","NORAD_CAT_ID":"55644","RA_OF_ASC_NODE":"199.0854","MEAN_MOTION":"15.31822639","MEAN_ANOMALY":"136.8438","RCS_SIZE":"LARGE","REF_FRAME":"TEME","FILE":"3928201","MEAN_MOTION_DDOT":"0.0000000000000","OBJECT_ID":"2023-021S","ELEMENT_SET_NO":"999","COUNTRY_CODE":"US","PERIAPSIS":"467.993","APOAPSIS":"472.760","CLASSIFICATION_TYPE":"U","TIME_SYSTEM":"UTC","TLE_LINE2":"2 55644  69.9990 199.0854 0003480 268.6171 136.8438 15.31822639  1307","PERIOD":"94.006","REV_AT_EPOCH":"130","SEMIMAJOR_AXIS":"6848.511","CENTER_NAME":"EARTH","EPHEMERIS_TYPE":"0","EPOCH":"2023-06-08T22:00:00.999936","SITE":"AFWTR","BSTAR":"-0.02971700000000","GP_ID":"233506895"},{"EPOCH":"2023-06-08T22:00:00.999936","SITE":"AFWTR","BSTAR":"-0.02763800000000","GP_ID":"233505645","SEMIMAJOR_AXIS":"6841.032","CENTER_NAME":"EARTH","EPHEMERIS_TYPE":"0","ELEMENT_SET_NO":"999","OBJECT_ID":"2023-021T","COUNTRY_CODE":"US","PERIAPSIS":"460.729","APOAPSIS":"465.064","CLASSIFICATION_TYPE":"U","TIME_SYSTEM":"UTC","REV_AT_EPOCH":"130","TLE_LINE2":"2 55645  69.9988 198.9781 0003169 268.1418 231.0043 15.34335646  1305","PERIOD":"93.852","MEAN_MOTION":"15.34335646","MEAN_ANOMALY":"231.0043","RCS_SIZE":"LARGE","REF_FRAME":"TEME","MEAN_MOTION_DDOT":"0.0000000000000","FILE":"3928201","MEAN_ELEMENT_THEORY":"SGP4","NORAD_CAT_ID":"55645","RA_OF_ASC_NODE":"198.9781","ARG_OF_PERICENTER":"268.1418","OBJECT_TYPE":"PAYLOAD","DECAY_DATE":null,"ECCENTRICITY":"0.00031690","TLE_LINE1":"1 55645U 23021T   23159.91667824 -.00850588  00000-0 -27638-1 0  9999","LAUNCH_DATE":"2023-02-17","MEAN_MOTION_DOT":"-0.00850588","OBJECT_NAME":"STARLINK-5102","INCLINATION":"69.9988"},{"INCLINATION":"69.9990","OBJECT_NAME":"STARLINK-5104","MEAN_MOTION_DOT":"-0.00846356","TLE_LINE1":"1 55646U 23021U   23159.91667824 -.00846356  00000-0 -30578-1 0  9995","LAUNCH_DATE":"2023-02-17","ECCENTRICITY":"0.00035650","DECAY_DATE":null,"OBJECT_TYPE":"PAYLOAD","ARG_OF_PERICENTER":"270.3965","RA_OF_ASC_NODE":"199.1252","NORAD_CAT_ID":"55646","MEAN_ELEMENT_THEORY":"SGP4","MEAN_MOTION_DDOT":"0.0000000000000","FILE":"3928201","REF_FRAME":"TEME","RCS_SIZE":"LARGE","MEAN_ANOMALY":"100.0932","MEAN_MOTION":"15.30954347","TLE_LINE2":"2 55646  69.9990 199.1252 0003565 270.3965 100.0932 15.30954347  1300","PERIOD":"94.059","REV_AT_EPOCH":"130","TIME_SYSTEM":"UTC","CLASSIFICATION_TYPE":"U","PERIAPSIS":"470.523","APOAPSIS":"475.408","COUNTRY_CODE":"US","OBJECT_ID":"2023-021U","ELEMENT_SET_NO":"999","EPHEMERIS_TYPE":"0","CENTER_NAME":"EARTH","SEMIMAJOR_AXIS":"6851.101","GP_ID":"233505895","BSTAR":"-0.03057800000000","SITE":"AFWTR","EPOCH":"2023-06-08T22:00:00.999936"}];
